{"type": "FeatureCollection", "features": [ {"type": "Feature", "properties": {"norad_id": 39574, "name": "GPM-CORE", "group": "resource", "lat": 64.95437210845864, "lon": -69.49081793059474, "alt_km": 431.4056502660551, "timestamp": "2025-12-16T15:45:50.670957+00:00", "meta": {"OBJECT_NAME": "GPM-CORE", "OBJECT_ID": "2014-009C", "EPOCH": "2025-12-15T22:16:47.025120", "MEAN_MOTION": 15.4451617, "ECCENTRICITY": 0.00096509, "INCLINATION": 64.973, "RA_OF_ASC_NODE": 202.0036, "ARG_OF_PERICENTER": 246.3399, "MEAN_ANOMALY": 113.6729, "EPHEMERIS_TYPE": 0, "CLASSIFICATION_TYPE": "U", "NORAD_CAT_ID": 39574, "ELEMENT_SET_NO": 999, "REV_AT_EPOCH": 66950, "BSTAR": 0.00013374658, "MEAN_MOTION_DOT": 5.994e-05, "MEAN_MOTION_DDOT": 0}, "tle": {"line1": "1 39574U 14009C   25349.92832205  .00005994  00000+0  13375-3 0  9994", "line2": "2 39574  64.9730 202.0036 0009650 246.3399 113.6729 15.44516170669507"}}, "geometry": {"type": "Point", "coordinates": [-69.49081793059474, 64.95437210845864]}}, {"type": "Feature", "properties": {"norad_id": 39634, "name": "SENTINEL-1A", "group": "resource", "lat": 11.016734953392472, "lon": 177.4456275859279, "alt_km": 697.148894549191, "timestamp": "2025-12-16T15:45:50.670975+00:00", "meta": {"OBJECT_NAME": "SENTINEL-1A", "OBJECT_ID": "2014-016A", "EPOCH": "2025-12-16T00:10:54.869664", "MEAN_MOTION": 14.59200984, "ECCENTRICITY": 0.00012424, "INCLINATION": 98.1807, "RA_OF_ASC_NODE": 355.2011, "ARG_OF_PERICENTER": 83.7808, "MEAN_ANOMALY": 276.3534, "EPHEMERIS_TYPE": 0, "CLASSIFICATION_TYPE": "U", "NORAD_CAT_ID": 39634, "ELEMENT_SET_NO": 999, "REV_AT_EPOCH": 62330, "BSTAR": 7.7489996e-05, "MEAN_MOTION_DOT": 3.2e-06, "MEAN_MOTION_DDOT": 0}, "tle": {"line1": "1 39634U 14016A   25350.00757951  .00000320  00000+0  77490-4 0  9991", "line2": "2 39634  98.1807 355.2011 0001242  83.7808 276.3534 14.59200984623306"}}, "geometry": {"type": "Point", "coordinates": [177.4456275859279, 11.016734953392472]}}, {"type": "Feature", "properties": {"norad_id": 39731, "name": "KAZEOSAT 1", "group": "resource", "lat": -78.46580560525963, "lon": -163.5042938461709, "alt_km": 759.809497861158, "timestamp": "2025-12-16T15:45:50.670992+00:00", "meta": {"OBJECT_NAME": "KAZEOSAT 1", "OBJECT_ID": "2014-024A", "EPOCH": "2025-12-15T23:33:56.005344", "MEAN_MOTION": 14.42064561, "ECCENTRICITY": 0.00011405, "INCLINATION": 98.3432, "RA_OF_ASC_NODE": 61.8163, "ARG_OF_PERICENTER": 95.8699, "MEAN_ANOMALY": 264.2621, "EPHEMERIS_TYPE": 0, "CLASSIFICATION_TYPE": "U", "NORAD_CAT_ID": 39731, "ELEMENT_SET_NO": 999, "REV_AT_EPOCH": 61215, "BSTAR": 6.663823e-05, "MEAN_MOTION_DOT": 1.76e-06, "MEAN_MOTION_DDOT": 0}, "tle": {"line1": "1 39731U 14024A   25349.98189821  .00000176  00000+0  66638-4 0  9999", "line2": "2 39731  98.3432  61.8163 0001140  95.8699 264.2621 14.42064561612152"}}, "geometry": {"type": "Point", "coordinates": [-163.5042938461709, -78.46580560525963]}}, {"type": "Feature", "properties": {"norad_id": 39766, "name": "ALOS-2", "group": "resource", "lat": -46.84864118630841, "lon": 93.98914081106145, "alt_km": 638.5791729887742, "timestamp": "2025-12-16T15:45:50.671008+00:00", "meta": {"OBJECT_NAME": "ALOS-2", "OBJECT_ID": "2014-029A", "EPOCH": "2025-12-15T23:44:46.426272", "MEAN_MOTION": 14.79466887, "ECCENTRICITY": 0.00013786, "INCLINATION": 97.9224, "RA_OF_ASC_NODE": 84.7889, "ARG_OF_PERICENTER": 97.0355, "MEAN_ANOMALY": 263.1013, "EPHEMERIS_TYPE": 0, "CLASSIFICATION_TYPE": "U", "NORAD_CAT_ID": 39766, "ELEMENT_SET_NO": 999, "REV_AT_EPOCH": 62449, "BSTAR": 8.2993901e-05, "MEAN_MOTION_DOT": 5.68e-06, "MEAN_MOTION_DDOT": 0}, "tle": {"line1": "1 39766U 14029A   25349.98942623  .00000568  00000+0  82994-4 0  9997", "line2": "2 39766  97.9224  84.7889 0001378  97.0355 263.1013 14.79466887624499"}}, "geometry": {"type": "Point", "coordinates": [93.98914081106145, -46.84864118630841]}}, {"type": "Feature", "properties": {"norad_id": 40010, "name": "KAZEOSAT 2", "group": "resource", "lat": -56.20161476442449, "lon": -153.80231802089972, "alt_km": 622.0126603748495, "timestamp": "2025-12-16T15:45:50.671025+00:00", "meta": {"OBJECT_NAME": "KAZEOSAT 2", "OBJECT_ID": "2014-033A", "EPOCH": "2025-12-15T20:37:00.382080", "MEAN_MOTION": 14.85174101, "ECCENTRICITY": 0.00079058, "INCLINATION": 97.5508, "RA_OF_ASC_NODE": 194.0123, "ARG_OF_PERICENTER": 195.6901, "MEAN_ANOMALY": 164.4071, "EPHEMERIS_TYPE": 0, "CLASSIFICATION_TYPE": "U", "NORAD_CAT_ID": 40010, "ELEMENT_SET_NO": 999, "REV_AT_EPOCH": 62174, "BSTAR": 0.0001204027, "MEAN_MOTION_DOT": 9.81e-06, "MEAN_MOTION_DDOT": 0}, "tle": {"line1": "1 40010U 14033A   25349.85903220  .00000981  00000+0  12040-3 0  9995", "line2": "2 40010  97.5508 194.0123 0007905 195.6901 164.4071 14.85174101621748"}}, "geometry": {"type": "Point", "coordinates": [-153.80231802089972, -56.20161476442449]}}, {"type": "Feature", "properties": {"norad_id": 40011, "name": "HODOYOSHI-4", "group": "resource", "lat": 62.22083774142942, "lon": 164.78122034039583, "alt_km": 608.7759564290363, "timestamp": "2025-12-16T15:45:50.671042+00:00", "meta": {"OBJECT_NAME": "HODOYOSHI-4", "OBJECT_ID": "2014-033B", "EPOCH": "2025-12-15T23:20:07.448352", "MEAN_MOTION": 14.87498527, "ECCENTRICITY": 0.0023294, "INCLINATION": 97.5416, "RA_OF_ASC_NODE": 178.6966, "ARG_OF_PERICENTER": 189.5003, "MEAN_ANOMALY": 170.5777, "EPHEMERIS_TYPE": 0, "CLASSIFICATION_TYPE": "U", "NORAD_CAT_ID": 40011, "ELEMENT_SET_NO": 999, "REV_AT_EPOCH": 62156, "BSTAR": 0.00024874867, "MEAN_MOTION_DOT": 2.214e-05, "MEAN_MOTION_DDOT": 0}, "tle": {"line1": "1 40011U 14033B   25349.97230843  .00002214  00000+0  24875-3 0  9993", "line2": "2 40011  97.5416 178.6966 0023294 189.5003 170.5777 14.87498527621568"}}, "geometry": {"type": "Point", "coordinates": [164.78122034039583, 62.22083774142942]}}, {"type": "Feature", "properties": {"norad_id": 40013, "name": "DEIMOS-2", "group": "resource", "lat": -61.11518136754824, "lon": -119.65489525037611, "alt_km": 596.4947371048484, "timestamp": "2025-12-16T15:45:50.671059+00:00", "meta": {"OBJECT_NAME": "DEIMOS-2", "OBJECT_ID": "2014-033D", "EPOCH": "2025-12-15T22:20:52.780416", "MEAN_MOTION": 14.92986754, "ECCENTRICITY": 0.00010157, "INCLINATION": 97.6062, "RA_OF_ASC_NODE": 225.6259, "ARG_OF_PERICENTER": 108.9867, "MEAN_ANOMALY": 251.1463, "EPHEMERIS_TYPE": 0, "CLASSIFICATION_TYPE": "U", "NORAD_CAT_ID": 40013, "ELEMENT_SET_NO": 999, "REV_AT_EPOCH": 61037, "BSTAR": 0.00020092848, "MEAN_MOTION_DOT": 2.033e-05, "MEAN_MOTION_DDOT": 0}, "tle": {"line1": "1 40013U 14033D   25349.93116644  .00002033  00000+0  20093-3 0  9990", "line2": "2 40013  97.6062 225.6259 0001015 108.9867 251.1463 14.92986754610371"}}, "geometry": {"type": "Point", "coordinates": [-119.65489525037611, -61.11518136754824]}}, {"type": "Feature", "properties": {"norad_id": 40015, "name": "HODOYOSHI-3", "group": "resource", "lat": -47.98709777559478, "lon": 164.8674866800847, "alt_km": 615.8944684022517, "timestamp": "2025-12-16T15:45:50.671076+00:00", "meta": {"OBJECT_NAME": "HODOYOSHI-3", "OBJECT_ID": "2014-033F", "EPOCH": "2025-12-15T22:11:30.154848", "MEAN_MOTION": 14.84818696, "ECCENTRICITY": 0.00319853, "INCLINATION": 97.6196, "RA_OF_ASC_NODE": 155.6212, "ARG_OF_PERICENTER": 236.9798, "MEAN_ANOMALY": 122.8343, "EPHEMERIS_TYPE": 0, "CLASSIFICATION_TYPE": "U", "NORAD_CAT_ID": 40015, "ELEMENT_SET_NO": 999, "REV_AT_EPOCH": 62042, "BSTAR": 0.00015999609, "MEAN_MOTION_DOT": 1.318e-05, "MEAN_MOTION_DDOT": 0}, "tle": {"line1": "1 40015U 14033F   25349.92465457  .00001318  00000+0  16000-3 0  9998", "line2": "2 40015  97.6196 155.6212 0031985 236.9798 122.8343 14.84818696620424"}}, "geometry": {"type": "Point", "coordinates": [164.8674866800847, -47.98709777559478]}}, {"type": "Feature", "properties": {"norad_id": 40053, "name": "SPOT 7", "group": "resource", "lat": 54.13675194081831, "lon": 41.293842815482314, "alt_km": 684.7010991999105, "timestamp": "2025-12-16T15:45:50.671093+00:00", "meta": {"OBJECT_NAME": "SPOT 7", "OBJECT_ID": "2014-034A", "EPOCH": "2025-12-15T23:04:25.146624", "MEAN_MOTION": 14.60738894, "ECCENTRICITY": 0.00015701, "INCLINATION": 98.0906, "RA_OF_ASC_NODE": 51.9628, "ARG_OF_PERICENTER": 86.368, "MEAN_ANOMALY": 273.7701, "EPHEMERIS_TYPE": 0, "CLASSIFICATION_TYPE": "U", "NORAD_CAT_ID": 40053, "ELEMENT_SET_NO": 999, "REV_AT_EPOCH": 61038, "BSTAR": 0.00012792605, "MEAN_MOTION_DOT": 5.78e-06, "MEAN_MOTION_DDOT": 0}, "tle": {"line1": "1 40053U 14034A   25349.96140216  .00000578  00000+0  12793-3 0  9990", "line2": "2 40053  98.0906  51.9628 0001570  86.3680 273.7701 14.60738894610386"}}, "geometry": {"type": "Point", "coordinates": [41.293842815482314, 54.13675194081831]}}, {"type": "Feature", "properties": {"norad_id": 40072, "name": "SKYSAT-B", "group": "resource", "lat": 4.427023329632688, "lon": -66.0827822200012, "alt_km": 611.7555857058005, "timestamp": "2025-12-16T15:45:50.671109+00:00", "meta": {"OBJECT_NAME": "SKYSAT-B", "OBJECT_ID": "2014-037D", "EPOCH": "2025-12-15T20:22:07.790592", "MEAN_MOTION": 14.87339202, "ECCENTRICITY": 0.00063788, "INCLINATION": 98.361, "RA_OF_ASC_NODE": 293.7189, "ARG_OF_PERICENTER": 141.1261, "MEAN_ANOMALY": 219.0413, "EPHEMERIS_TYPE": 0, "CLASSIFICATION_TYPE": "U", "NORAD_CAT_ID": 40072, "ELEMENT_SET_NO": 999, "REV_AT_EPOCH": 61870, "BSTAR": 0.00016585281, "MEAN_MOTION_DOT": 1.437e-05, "MEAN_MOTION_DDOT": 0}, "tle": {"line1": "1 40072U 14037D   25349.84870128  .00001437  00000+0  16585-3 0  9991", "line2": "2 40072  98.3610 293.7189 0006378 141.1261 219.0413 14.87339202618702"}}, "geometry": {"type": "Point", "coordinates": [-66.0827822200012, 4.427023329632688]}}]}